start=new Date('2022-03-30T00:00:00.000Z').valueOf();
sats=[{"EPOCH":"2022-03-29T22:12:15.642720","TLE_LINE1":"1 48389U 21038AN  22088.92518105 -.00000051  00000-0  15458-4 0  9991","BSTAR":"0.00001545800000","MEAN_MOTION_DDOT":"0.0000000000000","MEAN_MOTION_DOT":"-0.00000051","SEMIMAJOR_AXIS":"6925.373","ARG_OF_PERICENTER":"68.2101","ELEMENT_SET_NO":"999","TLE_LINE2":"2 48389  53.0576 329.4645 0001724  68.2101 291.9072 15.06391946 50149","OBJECT_ID":"2021-038AN","REF_FRAME":"TEME","REV_AT_EPOCH":"5014","PERIAPSIS":"546.044","MEAN_MOTION":"15.06391946","PERIOD":"95.593","LAUNCH_DATE":"2021-05-04","ECCENTRICITY":"0.00017240","INCLINATION":"53.0576","DECAY_DATE":null,"RA_OF_ASC_NODE":"329.4645","GP_ID":"200018870","RCS_SIZE":"LARGE","SITE":"AFETR","CLASSIFICATION_TYPE":"U","CENTER_NAME":"EARTH","NORAD_CAT_ID":"48389","APOAPSIS":"548.432","TIME_SYSTEM":"UTC","EPHEMERIS_TYPE":"0","COUNTRY_CODE":"US","OBJECT_NAME":"STARLINK-1904","OBJECT_TYPE":"PAYLOAD","MEAN_ELEMENT_THEORY":"SGP4","FILE":"3379484","MEAN_ANOMALY":"291.9072"},{"GP_ID":"200019120","RA_OF_ASC_NODE":"329.4874","RCS_SIZE":"LARGE","SITE":"AFETR","CLASSIFICATION_TYPE":"U","CENTER_NAME":"EARTH","PERIOD":"95.593","MEAN_MOTION":"15.06393336","LAUNCH_DATE":"2021-05-04","DECAY_DATE":null,"INCLINATION":"53.0547","ECCENTRICITY":"0.00016770","OBJECT_NAME":"STARLINK-2586","OBJECT_TYPE":"PAYLOAD","FILE":"3379484","MEAN_ELEMENT_THEORY":"SGP4","MEAN_ANOMALY":"304.5936","TIME_SYSTEM":"UTC","NORAD_CAT_ID":"48390","APOAPSIS":"548.395","EPHEMERIS_TYPE":"0","COUNTRY_CODE":"US","MEAN_MOTION_DOT":"-0.00000958","EPOCH":"2022-03-29T22:06:56.661696","TLE_LINE1":"1 48390U 21038AP  22088.92148914 -.00000958  00000-0 -45444-4 0  9995","MEAN_MOTION_DDOT":"0.0000000000000","BSTAR":"-0.00004544400000","OBJECT_ID":"2021-038AP","REV_AT_EPOCH":"5136","REF_FRAME":"TEME","PERIAPSIS":"546.073","SEMIMAJOR_AXIS":"6925.369","ARG_OF_PERICENTER":"55.5212","TLE_LINE2":"2 48390  53.0547 329.4874 0001677  55.5212 304.5936 15.06393336 51362","ELEMENT_SET_NO":"999"},{"RCS_SIZE":"LARGE","SITE":"AFETR","CENTER_NAME":"EARTH","CLASSIFICATION_TYPE":"U","RA_OF_ASC_NODE":"329.5011","GP_ID":"200019872","LAUNCH_DATE":"2021-05-04","ECCENTRICITY":"0.00019050","INCLINATION":"53.0559","DECAY_DATE":null,"MEAN_MOTION":"15.06384699","PERIOD":"95.593","MEAN_ELEMENT_THEORY":"SGP4","FILE":"3379484","MEAN_ANOMALY":"304.8935","OBJECT_NAME":"STARLINK-2607","OBJECT_TYPE":"PAYLOAD","EPHEMERIS_TYPE":"0","COUNTRY_CODE":"US","APOAPSIS":"548.580","NORAD_CAT_ID":"48391","TIME_SYSTEM":"UTC","MEAN_MOTION_DOT":"-0.00001546","MEAN_MOTION_DDOT":"0.0000000000000","BSTAR":"-0.00008495900000","EPOCH":"2022-03-29T22:01:39.234144","TLE_LINE1":"1 48391U 21038AQ  22088.91781521 -.00001546  00000-0 -84959-4 0  9990","REF_FRAME":"TEME","REV_AT_EPOCH":"5136","PERIAPSIS":"545.941","OBJECT_ID":"2021-038AQ","ARG_OF_PERICENTER":"55.2233","ELEMENT_SET_NO":"999","TLE_LINE2":"2 48391  53.0559 329.5011 0001905  55.2233 304.8935 15.06384699 51368","SEMIMAJOR_AXIS":"6925.395"},{"PERIOD":"95.593","MEAN_MOTION":"15.06388439","LAUNCH_DATE":"2021-05-04","DECAY_DATE":null,"ECCENTRICITY":"0.00017190","INCLINATION":"53.0570","GP_ID":"200020120","RA_OF_ASC_NODE":"329.5175","SITE":"AFETR","RCS_SIZE":"LARGE","CENTER_NAME":"EARTH","CLASSIFICATION_TYPE":"U","TIME_SYSTEM":"UTC","APOAPSIS":"548.439","NORAD_CAT_ID":"48392","EPHEMERIS_TYPE":"0","COUNTRY_CODE":"US","OBJECT_NAME":"STARLINK-2605","OBJECT_TYPE":"PAYLOAD","FILE":"3379484","MEAN_ELEMENT_THEORY":"SGP4","MEAN_ANOMALY":"305.2799","EPOCH":"2022-03-29T21:56:21.040224","TLE_LINE1":"1 48392U 21038AR  22088.91413241 -.00000663  00000-0 -25621-4 0  9992","BSTAR":"-0.00002562100000","MEAN_MOTION_DDOT":"0.0000000000000","MEAN_MOTION_DOT":"-0.00000663","SEMIMAJOR_AXIS":"6925.384","ARG_OF_PERICENTER":"54.8351","TLE_LINE2":"2 48392  53.0570 329.5175 0001719  54.8351 305.2799 15.06388439 51361","ELEMENT_SET_NO":"999","OBJECT_ID":"2021-038AR","REV_AT_EPOCH":"5136","REF_FRAME":"TEME","PERIAPSIS":"546.059"},{"DECAY_DATE":null,"ECCENTRICITY":"0.00016130","INCLINATION":"53.0556","LAUNCH_DATE":"2021-05-04","PERIOD":"95.593","MEAN_MOTION":"15.06382553","CENTER_NAME":"EARTH","CLASSIFICATION_TYPE":"U","RCS_SIZE":"LARGE","SITE":"AFETR","GP_ID":"200019370","RA_OF_ASC_NODE":"329.5416","COUNTRY_CODE":"US","EPHEMERIS_TYPE":"0","TIME_SYSTEM":"UTC","NORAD_CAT_ID":"48393","APOAPSIS":"548.384","MEAN_ANOMALY":"308.3610","FILE":"3379484","MEAN_ELEMENT_THEORY":"SGP4","OBJECT_TYPE":"PAYLOAD","OBJECT_NAME":"STARLINK-2602","MEAN_MOTION_DDOT":"0.0000000000000","BSTAR":"-0.00008790900000","TLE_LINE1":"1 48393U 21038AS  22088.91044864 -.00001590  00000-0 -87909-4 0  9991","EPOCH":"2022-03-29T21:51:02.762496","MEAN_MOTION_DOT":"-0.00001590","TLE_LINE2":"2 48393  53.0556 329.5416 0001613  51.7524 308.3610 15.06382553 51362","ELEMENT_SET_NO":"999","ARG_OF_PERICENTER":"51.7524","SEMIMAJOR_AXIS":"6925.402","PERIAPSIS":"546.150","REV_AT_EPOCH":"5136","REF_FRAME":"TEME","OBJECT_ID":"2021-038AS"},{"MEAN_MOTION_DOT":"-0.00001142","MEAN_MOTION_DDOT":"0.0000000000000","BSTAR":"-0.00005781700000","TLE_LINE1":"1 48394U 21038AT  22088.90674441 -.00001142  00000-0 -57817-4 0  9999","EPOCH":"2022-03-29T21:45:42.717024","PERIAPSIS":"546.096","REV_AT_EPOCH":"5136","REF_FRAME":"TEME","OBJECT_ID":"2021-038AT","TLE_LINE2":"2 48394  53.0561 329.5442 0001642  57.0361 303.0786 15.06393674 51360","ELEMENT_SET_NO":"999","ARG_OF_PERICENTER":"57.0361","SEMIMAJOR_AXIS":"6925.368","CENTER_NAME":"EARTH","CLASSIFICATION_TYPE":"U","SITE":"AFETR","RCS_SIZE":"LARGE","GP_ID":"200019620","RA_OF_ASC_NODE":"329.5442","DECAY_DATE":null,"ECCENTRICITY":"0.00016420","INCLINATION":"53.0561","LAUNCH_DATE":"2021-05-04","PERIOD":"95.593","MEAN_MOTION":"15.06393674","MEAN_ANOMALY":"303.0786","FILE":"3379484","MEAN_ELEMENT_THEORY":"SGP4","OBJECT_TYPE":"PAYLOAD","OBJECT_NAME":"STARLINK-2573","COUNTRY_CODE":"US","EPHEMERIS_TYPE":"0","TIME_SYSTEM":"UTC","APOAPSIS":"548.370","NORAD_CAT_ID":"48394"},{"MEAN_MOTION_DOT":"-0.00004034","TLE_LINE1":"1 48395U 21038AU  22088.89106469 -.00004034  00000-0 -25216-3 0  9998","EPOCH":"2022-03-29T21:23:07.989216","MEAN_MOTION_DDOT":"0.0000000000000","BSTAR":"-0.00025216000000","OBJECT_ID":"2021-038AU","PERIAPSIS":"546.109","REV_AT_EPOCH":"5136","REF_FRAME":"TEME","SEMIMAJOR_AXIS":"6925.391","TLE_LINE2":"2 48395  53.0558 329.6154 0001656  62.3459 297.7697 15.06386093 51367","ELEMENT_SET_NO":"999","ARG_OF_PERICENTER":"62.3459","GP_ID":"200020372","RA_OF_ASC_NODE":"329.6154","CENTER_NAME":"EARTH","CLASSIFICATION_TYPE":"U","SITE":"AFETR","RCS_SIZE":"LARGE","PERIOD":"95.593","MEAN_MOTION":"15.06386093","DECAY_DATE":null,"ECCENTRICITY":"0.00016560","INCLINATION":"53.0558","LAUNCH_DATE":"2021-05-04","OBJECT_TYPE":"PAYLOAD","OBJECT_NAME":"STARLINK-2574","MEAN_ANOMALY":"297.7697","FILE":"3379484","MEAN_ELEMENT_THEORY":"SGP4","TIME_SYSTEM":"UTC","NORAD_CAT_ID":"48395","APOAPSIS":"548.403","COUNTRY_CODE":"US","EPHEMERIS_TYPE":"0"},{"RA_OF_ASC_NODE":"329.5698","GP_ID":"200020620","RCS_SIZE":"LARGE","SITE":"AFETR","CENTER_NAME":"EARTH","CLASSIFICATION_TYPE":"U","MEAN_MOTION":"15.06383419","PERIOD":"95.593","LAUNCH_DATE":"2021-05-04","INCLINATION":"53.0553","ECCENTRICITY":"0.00017620","DECAY_DATE":null,"OBJECT_NAME":"STARLINK-2575","OBJECT_TYPE":"PAYLOAD","MEAN_ELEMENT_THEORY":"SGP4","FILE":"3379484","MEAN_ANOMALY":"298.9920","APOAPSIS":"548.485","NORAD_CAT_ID":"48396","TIME_SYSTEM":"UTC","EPHEMERIS_TYPE":"0","COUNTRY_CODE":"US","MEAN_MOTION_DOT":"-0.00003620","EPOCH":"2022-03-29T21:40:25.178880","TLE_LINE1":"1 48396U 21038AV  22088.90306920 -.00003620  00000-0 -22435-3 0  9995","BSTAR":"-0.00022435000000","MEAN_MOTION_DDOT":"0.0000000000000","OBJECT_ID":"2021-038AV","REF_FRAME":"TEME","REV_AT_EPOCH":"5136","PERIAPSIS":"546.044","SEMIMAJOR_AXIS":"6925.399","ARG_OF_PERICENTER":"61.1246","ELEMENT_SET_NO":"999","TLE_LINE2":"2 48396  53.0553 329.5698 0001762  61.1246 298.9920 15.06383419 51365"},{"COUNTRY_CODE":"US","EPHEMERIS_TYPE":"0","TIME_SYSTEM":"UTC","APOAPSIS":"548.230","NORAD_CAT_ID":"48397","MEAN_ANOMALY":"285.0400","FILE":"3379484","MEAN_ELEMENT_THEORY":"SGP4","OBJECT_TYPE":"PAYLOAD","OBJECT_NAME":"STARLINK-2590","DECAY_DATE":null,"ECCENTRICITY":"0.00014240","INCLINATION":"53.0559","LAUNCH_DATE":"2021-05-04","PERIOD":"95.593","MEAN_MOTION":"15.06390204","CENTER_NAME":"EARTH","CLASSIFICATION_TYPE":"U","RCS_SIZE":"LARGE","SITE":"AFETR","GP_ID":"200018871","RA_OF_ASC_NODE":"329.5843","TLE_LINE2":"2 48397  53.0559 329.5843 0001424  75.0747 285.0400 15.06390204 51369","ELEMENT_SET_NO":"999","ARG_OF_PERICENTER":"75.0747","SEMIMAJOR_AXIS":"6925.379","PERIAPSIS":"546.257","REV_AT_EPOCH":"5136","REF_FRAME":"TEME","OBJECT_ID":"2021-038AW","BSTAR":"-0.00005804000000","MEAN_MOTION_DDOT":"0.0000000000000","TLE_LINE1":"1 48397U 21038AW  22088.89937798 -.00001146  00000-0 -58040-4 0  9990","EPOCH":"2022-03-29T21:35:06.257472","MEAN_MOTION_DOT":"-0.00001146"},{"TIME_SYSTEM":"UTC","APOAPSIS":"548.413","NORAD_CAT_ID":"48398","COUNTRY_CODE":"US","EPHEMERIS_TYPE":"0","OBJECT_TYPE":"PAYLOAD","OBJECT_NAME":"STARLINK-2588","MEAN_ANOMALY":"296.9699","FILE":"3379484","MEAN_ELEMENT_THEORY":"SGP4","PERIOD":"95.593","MEAN_MOTION":"15.06380645","DECAY_DATE":null,"INCLINATION":"53.0548","ECCENTRICITY":"0.00016470","LAUNCH_DATE":"2021-05-04","GP_ID":"200019121","RA_OF_ASC_NODE":"329.6021","CENTER_NAME":"EARTH","CLASSIFICATION_TYPE":"U","RCS_SIZE":"LARGE","SITE":"AFETR","SEMIMAJOR_AXIS":"6925.408","TLE_LINE2":"2 48398  53.0548 329.6021 0001647  63.1459 296.9699 15.06380645 51361","ELEMENT_SET_NO":"999","ARG_OF_PERICENTER":"63.1459","OBJECT_ID":"2021-038AX","PERIAPSIS":"546.132","REV_AT_EPOCH":"5136","REF_FRAME":"TEME","TLE_LINE1":"1 48398U 21038AX  22088.89570825 -.00002293  00000-0 -13515-3 0  9996","EPOCH":"2022-03-29T21:29:49.192800","MEAN_MOTION_DDOT":"0.0000000000000","BSTAR":"-0.00013515000000","MEAN_MOTION_DOT":"-0.00002293"}];
